EUTELSAT 21B            
1 38992U 12062B   25259.58797870  .00000111  00000+0  00000+0 0  9997
2 38992   0.0711   9.9255 0002786 172.4716  46.6709  1.00274585 47086
EUTELSAT 70B            
1 39020U 12069A   25259.45494478 -.00000063  00000+0  00000+0 0  9998
2 39020   0.0661 346.2297 0004054 192.9272  50.7811  1.00272843 46769
EUTELSAT 117 WEST A     
1 39122U 13012A   25259.56059191 -.00000032  00000+0  00000+0 0  9997
2 39122   0.0263 283.8805 0002876 260.4840 256.4097  1.00270263 45688
EUTELSAT 7B             
1 39163U 13022A   25259.58511869  .00000028  00000+0  00000+0 0  9994
2 39163   0.0676 354.2020 0000745   6.0538 213.1481  1.00271710 45218
EXPRESS-AT1             
1 39612U 14010A   25259.16664606  .00000060  00000+0  00000+0 0  9999
2 39612   0.0190 199.6373 0000384 321.1030 310.6241  1.00272851 42072
EXPRESS-AT2             
1 39613U 14010B   25259.54434353 -.00000300  00000+0  00000+0 0  9994
2 39613   0.0145 234.1478 0000082  49.4448  47.9558  1.00272715 41756
EUTELSAT 3B             
1 39773U 14030A   25259.58433868  .00000001  00000+0  00000+0 0  9994
2 39773   0.0641 345.3861 0004538 191.8170  32.0419  1.00273116 41329
EUTELSAT 115 WEST B     
1 40425U 15010B   25259.56093858 -.00000044  00000+0  00000+0 0  9996
2 40425   0.0376  21.1507 0000027 230.6185 191.0285  1.00271753 38646
